NORAD_CAT_ID,OBJECT_NAME,OBJECT_TYPE,EPOCH,MEAN_MOTION,ECCENTRICITY,INCLINATION,RA_OF_ASC_NODE,ARG_OF_PERICENTER,MEAN_ANOMALY,BSTAR,MEAN_MOTION_DOT,MEAN_MOTION_DDOT,TLE_LINE0,TLE_LINE1,TLE_LINE2,SEMIMAJOR_AXIS,PERIOD,APOGEE,PERIGEE,DECAYED
55293.0,STARLINK-5287,PAYLOAD,2023-10-14 03:46:28,14.98332377,0.0003069,70.0005,77.0172,273.2835,86.7973,1.6162e-05,1e-06,0.0,0 STARLINK-5287,1 55293U 23010AA  23287.15726923  .00000100  00000-0  16162-4 0  9998,2 55293  70.0005  77.0172 0003069 273.2835  86.7973 14.98332377 41529,6950.186,96.107,574.184,569.918,0.0
55293.0,STARLINK-5287,PAYLOAD,2023-10-14 13:23:17,14.98323556,0.0003202,70.0001,76.0073,268.2569,91.8224,-9.7293e-05,-1.254e-05,0.0,0 STARLINK-5287,1 55293U 23010AA  23287.55783803 -.00001254  00000-0 -97293-4 0  9999,2 55293  70.0001  76.0073 0003202 268.2569  91.8224 14.98323556 41885,6950.213,96.107,574.303,569.852,0.0
55293.0,STARLINK-5287,PAYLOAD,2023-10-14 19:47:49,14.98323179,0.0003185,70.0003,75.3342,269.037,91.0425,-0.00011994,-1.524e-05,0.0,0 STARLINK-5287,1 55293U 23010AA  23287.82487981 -.00001524  00000-0 -11994-3 0  9990,2 55293  70.0003  75.3342 0003185 269.0370  91.0425 14.98323179 41625,6950.214,96.107,574.293,569.865,0.0
55293.0,STARLINK-5287,PAYLOAD,2023-10-15 13:25:18,14.98325561,0.0003177,70.0,73.4815,269.2497,90.8298,-3.8633e-05,-5.54e-06,0.0,0 STARLINK-5287,1 55293U 23010AA  23288.55923801 -.00000554  00000-0 -38633-4 0  9999,2 55293  70.0000  73.4815 0003177 269.2497  90.8298 14.98325561 42037,6950.207,96.107,574.28,569.864,0.0
55293.0,STARLINK-5287,PAYLOAD,2023-10-15 19:49:49,14.98340573,0.000325,70.0001,72.8075,269.1172,90.9614,-0.0001865,-2.318e-05,0.0,0 STARLINK-5287,1 55293U 23010AA  23288.82627184 -.00002318  00000-0 -18650-3 0  9990,2 55293  70.0001  72.8075 0003250 269.1172  90.9614 14.98340573 41773,6950.16,96.106,574.284,569.766,0.0
55293.0,STARLINK-5287,PAYLOAD,2023-10-16 08:38:54,14.98320915,0.0003224,70.0002,71.4609,266.4634,93.6157,0.00011517,1.281e-05,0.0,0 STARLINK-5287,1 55293U 23010AA  23289.36035515  .00001281  00000-0  11517-3 0  9992,2 55293  70.0002  71.4609 0003224 266.4634  93.6157 14.98320915 41855,6950.221,96.108,574.327,569.845,0.0
55293.0,STARLINK-5287,PAYLOAD,2023-10-16 13:27:18,14.98321594,0.0003218,70.0002,70.956,266.4291,93.65,0.00011442,1.272e-05,0.0,0 STARLINK-5287,1 55293U 23010AA  23289.56063581  .00001272  00000-0  11442-3 0  9995,2 55293  70.0002  70.9560 0003218 266.4291  93.6500 14.98321594 42180,6950.219,96.108,574.32,569.847,0.0
55293.0,STARLINK-5287,PAYLOAD,2023-10-16 16:39:35,14.9832374,0.0003226,70.0002,70.6198,266.1511,93.9279,0.00010789,1.194e-05,0.0,0 STARLINK-5287,1 55293U 23010AA  23289.69415524  .00001194  00000-0  10789-3 0  9993,2 55293  70.0002  70.6198 0003226 266.1511  93.9279 14.98323740 42209,6950.212,96.107,574.319,569.835,0.0
55293.0,STARLINK-5287,PAYLOAD,2023-10-17 11:53:11,14.98328575,0.0003147,70.0004,68.5998,266.1221,93.9578,2.8125e-05,2.43e-06,0.0,0 STARLINK-5287,1 55293U 23010AA  23290.49527644  .00000243  00000-0  28125-4 0  9998,2 55293  70.0004  68.5998 0003147 266.1221  93.9578 14.98328575 42028,6950.197,96.107,574.25,569.875,0.0
55293.0,STARLINK-5287,PAYLOAD,2023-10-18 02:18:24,14.98330671,0.0003112,70.0007,67.0849,268.9905,91.0897,2.6226e-06,-6.2e-07,0.0,0 STARLINK-5287,1 55293U 23010AA  23291.09611613 -.00000062  00000-0  26226-5 0  9996,2 55293  70.0007  67.0849 0003112 268.9905  91.0897 14.98330671 42417,6950.191,96.107,574.219,569.893,0.0
55293.0,STARLINK-5287,PAYLOAD,2023-10-18 11:55:13,14.98326933,0.0003033,70.0006,66.0751,268.3185,91.7627,-2.0015e-05,-3.32e-06,0.0,0 STARLINK-5287,1 55293U 23010AA  23291.49667932 -.00000332  00000-0 -20015-4 0  9995,2 55293  70.0006  66.0751 0003033 268.3185  91.7627 14.98326933 42170,6950.202,96.107,574.175,569.959,0.0
55293.0,STARLINK-5287,PAYLOAD,2023-10-19 02:20:25,14.98333236,0.0002984,70.0002,64.5601,272.6288,87.4529,1.2352e-05,5.4e-07,0.0,0 STARLINK-5287,1 55293U 23010AA  23292.09751445  .00000054  00000-0  12352-4 0  9999,2 55293  70.0002  64.5601 0002984 272.6288  87.4529 14.98333236 42266,6950.183,96.107,574.122,569.974,0.0
55293.0,STARLINK-5287,PAYLOAD,2023-10-19 11:57:13,14.98335829,0.0003059,70.0003,63.5503,272.3548,87.726,5.5845e-05,5.73e-06,0.0,0 STARLINK-5287,1 55293U 23010AA  23292.49807010  .00000573  00000-0  55845-4 0  9993,2 55293  70.0003  63.5503 0003059 272.3548  87.7260 14.98335829 42622,6950.175,96.107,574.166,569.914,0.0
55293.0,STARLINK-5287,PAYLOAD,2023-10-20 02:22:25,14.98332397,0.0003109,70.0004,62.0356,272.1474,87.9329,5.6532e-05,5.82e-06,0.0,0 STARLINK-5287,1 55293U 23010AA  23293.09891012  .00000582  00000-0  56532-4 0  9999,2 55293  70.0004  62.0356 0003109 272.1474  87.9329 14.98332397 42417,6950.185,96.107,574.211,569.89,0.0
55293.0,STARLINK-5287,PAYLOAD,2023-10-20 11:59:14,14.9832386,0.0002924,69.9995,61.0227,267.8356,92.2469,-1.8283e-05,-3.11e-06,0.0,0 STARLINK-5287,1 55293U 23010AA  23293.49947758 -.00000311  00000-0 -18283-4 0  9995,2 55293  69.9995  61.0227 0002924 267.8356  92.2469 14.98323860 42478,6950.212,96.107,574.109,570.045,0.0
55293.0,STARLINK-5287,PAYLOAD,2023-10-21 12:01:15,14.98334402,0.0002999,70.0001,58.498,266.9384,93.1432,-1.6405e-05,-2.89e-06,0.0,0 STARLINK-5287,1 55293U 23010AA  23294.50087094 -.00000289  00000-0 -16405-4 0  9994,2 55293  70.0001  58.4980 0002999 266.9384  93.1432 14.98334402 42629,6950.179,96.107,574.129,569.96,0.0
55293.0,STARLINK-5287,PAYLOAD,2023-10-21 18:25:47,14.98322908,0.0002614,70.0006,57.827,257.7461,102.3406,0.00040631,4.757e-05,0.0,0 STARLINK-5287,1 55293U 23010AA  23294.76790632  .00004757  00000-0  40631-3 0  9990,2 55293  70.0006  57.8270 0002614 257.7461 102.3406 14.98322908 42966,6950.215,96.107,573.897,570.263,0.0
55293.0,STARLINK-5287,PAYLOAD,2023-10-22 12:03:16,14.98320273,0.0002778,70.0004,55.9733,270.115,89.9691,-1.0302e-05,-2.16e-06,0.0,0 STARLINK-5287,1 55293U 23010AA  23295.50227992 -.00000216  00000-0 -10302-4 0  9998,2 55293  70.0004  55.9733 0002778 270.1150  89.9691 14.98320273 42770,6950.223,96.108,574.019,570.157,0.0
55293.0,STARLINK-5287,PAYLOAD,2023-10-22 13:39:25,14.98318855,0.0003091,69.9997,55.8045,267.0349,93.0456,-3.2499e-05,-4.81e-06,0.0,0 STARLINK-5287,1 55293U 23010AA  23295.56904112 -.00000481  00000-0 -32499-4 0  9995,2 55293  69.9997  55.8045 0003091 267.0349  93.0456 14.98318855 43080,6950.227,96.108,574.241,569.944,0.0
55293.0,STARLINK-5287,PAYLOAD,2023-10-22 18:27:49,14.9831938,0.0002952,70.0006,55.3028,253.1977,106.8858,-5.4394e-05,-7.42e-06,0.0,0 STARLINK-5287,1 55293U 23010AA  23295.76932201 -.00000742  00000-0 -54394-4 0  9995,2 55293  70.0006  55.3028 0002952 253.1977 106.8858 14.98319380 43115,6950.226,96.108,574.142,570.039,0.0
55293.0,STARLINK-5287,PAYLOAD,2023-10-23 00:52:21,14.98341103,0.0002864,70.0003,54.6287,258.4848,101.5989,-0.00026706,-3.279e-05,0.0,0 STARLINK-5287,1 55293U 23010AA  23296.03636068 -.00003279  00000-0 -26706-3 0  9991,2 55293  70.0003  54.6287 0002864 258.4848 101.5989 14.98341103 42853,6950.159,96.106,574.014,570.033,0.0
55293.0,STARLINK-5287,PAYLOAD,2023-10-23 18:29:49,14.98349676,0.0002901,70.0007,52.7775,260.3103,99.7728,-0.00019062,-2.368e-05,0.0,0 STARLINK-5287,1 55293U 23010AA  23296.77070741 -.00002368  00000-0 -19062-3 0  9997,2 55293  70.0007  52.7775 0002901 260.3103  99.7728 14.98349676 42960,6950.132,96.106,574.013,569.981,0.0
55293.0,STARLINK-5287,PAYLOAD,2023-10-24 00:54:21,14.98329325,0.0002792,70.0011,52.1037,269.6153,90.4686,6.9074e-05,7.31e-06,0.0,0 STARLINK-5287,1 55293U 23010AA  23297.03775433  .00000731  00000-0  69074-4 0  9996,2 55293  70.0011  52.1037 0002792 269.6153  90.4686 14.98329325 43001,6950.195,96.107,574.0,570.119,0.0
55293.0,STARLINK-5287,PAYLOAD,2023-10-24 13:43:26,14.98326676,0.0002955,70.001,50.7577,259.3717,100.7109,0.00011805,1.316e-05,0.0,0 STARLINK-5287,1 55293U 23010AA  23297.57183372  .00001316  00000-0  11805-3 0  9998,2 55293  70.0010  50.7577 0002955 259.3717 100.7109 14.98326676 43388,6950.203,96.107,574.122,570.014,0.0
55293.0,STARLINK-5287,PAYLOAD,2023-10-25 13:45:27,14.98331203,0.0003007,70.0012,48.233,268.7763,91.3052,-4.8527e-05,-6.72e-06,0.0,0 STARLINK-5287,1 55293U 23010AA  23298.57323593 -.00000672  00000-0 -48527-4 0  9998,2 55293  70.0012  48.2330 0003007 268.7763  91.3052 14.98331203 43231,6950.189,96.107,574.144,569.964,0.0
55293.0,STARLINK-5287,PAYLOAD,2023-10-26 13:47:28,14.98332503,0.0002836,70.0013,45.7082,260.0828,100.0011,2.9283e-06,-5.8e-07,0.0,0 STARLINK-5287,1 55293U 23010AA  23299.57463186 -.00000058  00000-0  29283-5 0  9998,2 55293  70.0013  45.7082 0002836 260.0828 100.0011 14.98332503 43680,6950.185,96.107,574.021,570.079,0.0
55293.0,STARLINK-5287,PAYLOAD,2023-10-26 16:59:44,14.98334319,0.0002744,70.0021,45.3721,259.9321,100.1529,5.7398e-05,5.92e-06,0.0,0 STARLINK-5287,1 55293U 23010AA  23299.70814897  .00000592  00000-0  57398-4 0  9991,2 55293  70.0021  45.3721 0002744 259.9321 100.1529 14.98334319 43703,6950.18,96.107,573.952,570.137,0.0
55293.0,STARLINK-5287,PAYLOAD,2023-10-27 01:00:24,14.9833623,0.0003122,70.0017,44.5298,269.5804,90.4997,5.6816e-05,5.85e-06,0.0,0 STARLINK-5287,1 55293U 23010AA  23300.04194610  .00000585  00000-0  56816-4 0  9991,2 55293  70.0017  44.5298 0003122 269.5804  90.4997 14.98336230 43458,6950.174,96.107,574.208,569.869,0.0
55293.0,STARLINK-5287,PAYLOAD,2023-10-27 13:49:28,14.98341718,0.0002714,70.0013,43.1836,257.3575,102.7281,4.0955e-05,3.96e-06,0.0,0 STARLINK-5287,1 55293U 23010AA  23300.57602093  .00000396  00000-0  40955-4 0  9995,2 55293  70.0013  43.1836 0002714 257.3575 102.7281 14.98341718 43835,6950.157,96.106,573.908,570.135,0.0
55293.0,STARLINK-5287,PAYLOAD,2023-10-27 17:01:44,14.98341808,0.0002712,70.0014,42.847,258.014,102.0715,4.229e-05,4.12e-06,0.0,0 STARLINK-5287,1 55293U 23010AA  23300.70953992  .00000412  00000-0  42290-4 0  9990,2 55293  70.0014  42.8470 0002712 258.0140 102.0715 14.98341808 43857,6950.156,96.106,573.906,570.136,0.0
